NORAD_CAT_ID,OBJECT_NAME,OBJECT_TYPE,EPOCH,MEAN_MOTION,ECCENTRICITY,INCLINATION,RA_OF_ASC_NODE,ARG_OF_PERICENTER,MEAN_ANOMALY,BSTAR,MEAN_MOTION_DOT,MEAN_MOTION_DDOT,TLE_LINE0,TLE_LINE1,TLE_LINE2,SEMIMAJOR_AXIS,PERIOD,APOGEE,PERIGEE,DECAYED
53268.0,STARLINK-4109,PAYLOAD,2022-11-30 13:13:30,15.08834512,0.0001615,53.2171,159.2966,71.139,288.9778,0.00010184,1.333e-05,0.0,0 STARLINK-4109,1 53268U 22086AC  22334.55105259  .00001333  00000-0  10184-3 0  9995,2 53268  53.2171 159.2966 0001615  71.1390 288.9778 15.08834512 20645,6917.897,95.438,540.879,538.645,0.0
53268.0,STARLINK-4109,PAYLOAD,2022-11-30 19:35:03,15.08837069,0.0001623,53.2171,158.1073,71.3982,288.7186,0.00011567,1.553e-05,0.0,0 STARLINK-4109,1 53268U 22086AC  22334.81601155  .00001553  00000-0  11567-3 0  9990,2 53268  53.2171 158.1073 0001623  71.3982 288.7186 15.08837069 20685,6917.889,95.438,540.877,538.632,0.0
53268.0,STARLINK-4109,PAYLOAD,2022-12-01 05:07:21,15.08841765,0.0001284,53.2169,156.3228,77.3997,282.7139,0.00013355,1.838e-05,0.0,0 STARLINK-4109,1 53268U 22086AC  22335.21344781  .00001838  00000-0  13355-3 0  9997,2 53268  53.2169 156.3228 0001284  77.3997 282.7139 15.08841765 20566,6917.875,95.437,540.628,538.852,0.0
53268.0,STARLINK-4109,PAYLOAD,2022-12-01 11:28:54,15.08843899,0.0001645,53.2172,155.1329,79.2243,280.8934,0.0001147,1.538e-05,0.0,0 STARLINK-4109,1 53268U 22086AC  22335.47840841  .00001538  00000-0  11470-3 0  9996,2 53268  53.2172 155.1329 0001645  79.2243 280.8934 15.08843899 20781,6917.868,95.437,540.871,538.595,0.0
53268.0,STARLINK-4109,PAYLOAD,2022-12-01 16:15:03,15.08850214,0.0001882,53.2182,154.2419,83.06700000000002,277.0537,0.00017442,2.49e-05,0.0,0 STARLINK-4109,1 53268U 22086AC  22335.67712239  .00002490  00000-0  17442-3 0  9990,2 53268  53.2182 154.2419 0001882  83.0670 277.0537 15.08850214 20812,6917.849,95.437,541.016,538.4119999999998,0.0
53268.0,STARLINK-4109,PAYLOAD,2022-12-01 21:01:12,15.08858482,0.0001587,53.2172,153.3488,79.6624,280.4547,0.00022108,3.234e-05,0.0,0 STARLINK-4109,1 53268U 22086AC  22335.87583372  .00003234  00000-0  22108-3 0  9998,2 53268  53.2172 153.3488 0001587  79.6624 280.4547 15.08858482 20666,6917.824000000001,95.436,540.7869999999998,538.591,0.0
53268.0,STARLINK-4109,PAYLOAD,2022-12-02 11:19:40,15.08850036,0.0001899,53.2166,150.6743,74.3331,285.7871,9.2648e-05,1.187e-05,0.0,0 STARLINK-4109,1 53268U 22086AC  22336.47200057  .00001187  00000-0  92648-4 0  9993,2 53268  53.2166 150.6743 0001899  74.3331 285.7871 15.08850036 20751,6917.85,95.437,541.028,538.401,0.0
53268.0,STARLINK-4109,PAYLOAD,2022-12-02 20:52:00,15.08841005,0.000164,53.2172,148.8887,68.8862,291.2305,1.3206e-05,-7.8e-07,0.0,0 STARLINK-4109,1 53268U 22086AC  22336.86944611 -.00000078  00000-0  13206-4 0  9999,2 53268  53.2172 148.8887 0001640  68.8862 291.2305 15.08841005 20814,6917.877,95.437,540.877,538.6080000000002,0.0
53268.0,STARLINK-4109,PAYLOAD,2022-12-03 11:10:27,15.08846811,0.0001649,53.2173,146.2121,73.1997,286.9176,3.4301e-05,2.58e-06,0.0,0 STARLINK-4109,1 53268U 22086AC  22337.46559949  .00000258  00000-0  34301-4 0  9990,2 53268  53.2173 146.2121 0001649  73.1997 286.9176 15.08846811 21082,6917.86,95.437,540.865,538.5840000000002,0.0
53268.0,STARLINK-4109,PAYLOAD,2022-12-03 17:32:00,15.08848873,0.000159,53.2171,145.0226,73.5295,286.5872,2.9535e-05,1.82e-06,0.0,0 STARLINK-4109,1 53268U 22086AC  22337.73055652  .00000182  00000-0  29535-4 0  9991,2 53268  53.2171 145.0226 0001590  73.5295 286.5872 15.08848873 20946,6917.853,95.437,540.818,538.618,0.0
53268.0,STARLINK-4109,PAYLOAD,2022-12-04 11:01:15,15.08833739,0.0001598,53.2171,141.7516,67.9947,292.1214,2.5234e-05,1.14e-06,0.0,0 STARLINK-4109,1 53268U 22086AC  22338.45920404  .00000114  00000-0  25234-4 0  9994,2 53268  53.2171 141.7516 0001598  67.9947 292.1214 15.08833739 21051,6917.9,95.438,540.87,538.659,0.0
53268.0,STARLINK-4109,PAYLOAD,2022-12-04 17:22:47,15.08834209,0.0001466,53.2169,140.5622,70.952,289.1631,2.7362e-05,1.47e-06,0.0,0 STARLINK-4109,1 53268U 22086AC  22338.72416421  .00000147  00000-0  27362-4 0  9993,2 53268  53.2169 140.5622 0001466  70.9520 289.1631 15.08834209 21274,6917.898,95.438,540.7769999999998,538.749,0.0
53268.0,STARLINK-4109,PAYLOAD,2022-12-05 10:52:01,15.08844343,0.0001431,53.2177,137.2916,67.373,292.7413,7.1562e-05,8.51e-06,0.0,0 STARLINK-4109,1 53268U 22086AC  22339.45279811  .00000851  00000-0  71562-4 0  9997,2 53268  53.2177 137.2916 0001431  67.3730 292.7413 15.08844343 21208,6917.8669999999975,95.437,540.722,538.742,0.0
53268.0,STARLINK-4109,PAYLOAD,2022-12-05 17:13:34,15.08847742,0.0001433,53.2176,136.1022,67.5175,292.5968,0.00011094,1.478e-05,0.0,0 STARLINK-4109,1 53268U 22086AC  22339.71775560  .00001478  00000-0  11094-3 0  9997,2 53268  53.2176 136.1022 0001433  67.5175 292.5968 15.08847742 21423,6917.857,95.437,540.7130000000002,538.73,0.0
53268.0,STARLINK-4109,PAYLOAD,2022-12-06 10:42:49,15.08840238,0.0001481,53.2162,132.8308,67.4385,292.6764,0.00014724,2.056e-05,0.0,0 STARLINK-4109,1 53268U 22086AC  22340.44640118  .00002056  00000-0  14724-3 0  9995,2 53268  53.2162 132.8308 0001481  67.4385 292.6764 15.08840238 21353,6917.88,95.438,540.769,538.72,0.0
53268.0,STARLINK-4109,PAYLOAD,2022-12-06 17:04:21,15.08842407,0.0001472,53.2163,131.6416,65.3053,294.8093,0.00014317,1.991e-05,0.0,0 STARLINK-4109,1 53268U 22086AC  22340.71136013  .00001991  00000-0  14317-3 0  9994,2 53268  53.2163 131.6416 0001472  65.3053 294.8093 15.08842407 21573,6917.873000000001,95.437,540.756,538.72,0.0
53268.0,STARLINK-4109,PAYLOAD,2022-12-07 12:08:59,15.08836505,0.0001460999999999,53.2166,128.0738,63.3787,296.7354,-2.9877e-05,-7.63e-06,0.0,0 STARLINK-4109,1 53268U 22086AC  22341.50624349 -.00000763  00000-0 -29877-4 0  9992,2 53268  53.2166 128.0738 0001461  63.3787 296.7354 15.08836505 21510,6917.891,95.438,540.7669999999998,538.745,0.0
53268.0,STARLINK-4109,PAYLOAD,2022-12-07 18:30:32,15.08839695,0.0001444,53.2176,126.8846,64.0169,296.0972,4.5495e-05,4.36e-06,0.0,0 STARLINK-4109,1 53268U 22086AC  22341.77120414  .00000436  00000-0  45495-4 0  9994,2 53268  53.2176 126.8846 0001444  64.0169 296.0972 15.08839695 21736,6917.880999999999,95.438,540.745,538.747,0.0
53268.0,STARLINK-4109,PAYLOAD,2022-12-08 02:27:27,15.08847392,0.0001431,53.2177,125.3975,61.9257,298.188,6.1351e-05,6.89e-06,0.0,0 STARLINK-4109,1 53268U 22086AC  22342.10239831  .00000689  00000-0  61351-4 0  9995,2 53268  53.2177 125.3975 0001431  61.9257 298.1880 15.08847392 21604,6917.858,95.437,540.7130000000002,538.7330000000002,0.0
53268.0,STARLINK-4109,PAYLOAD,2022-12-08 11:59:46,15.08840065,0.0001353,53.2172,123.6124,56.0308,304.0813,7.3846e-05,8.88e-06,0.0,0 STARLINK-4109,1 53268U 22086AC  22342.49984159  .00000888  00000-0  73846-4 0  9990,2 53268  53.2172 123.6124 0001353  56.0308 304.0813 15.08840065 21840,6917.88,95.438,540.681,538.809,0.0
53268.0,STARLINK-4109,PAYLOAD,2022-12-08 16:45:56,15.08835693,0.0001239,53.2184,122.722,42.5683,317.5405,4.425300000000001e-05,4.16e-06,0.0,0 STARLINK-4109,1 53268U 22086AC  22342.69856545  .00000416  00000-0  44253-4 0  9996,2 53268  53.2184 122.7220 0001239  42.5683 317.5405 15.08835693 21699,6917.894,95.438,540.616,538.901,0.0
53268.0,STARLINK-4109,PAYLOAD,2022-12-09 18:12:06,15.0883283,0.0001595999999999,53.2188,117.9654,69.1856,290.9307,2.6995e-05,1.42e-06,0.0,0 STARLINK-4109,1 53268U 22086AC  22343.75841336  .00000142  00000-0  26995-4 0  9995,2 53268  53.2188 117.9654 0001596  69.1856 290.9307 15.08832830 21856,6917.901999999999,95.438,540.871,538.663,0.0
53268.0,STARLINK-4109,PAYLOAD,2022-12-09 21:22:53,15.08828882,0.0001571,53.2188,117.3716,39.1396,320.9709,-2.6216e-05,-7.05e-06,0.0,0 STARLINK-4109,1 53268U 22086AC  22343.89089693 -.00000705  00000-0 -26216-4 0  9993,2 53268  53.2188 117.3716 0001571  39.1396 320.9709 15.08828882 21872,6917.9140000000025,95.438,540.866,538.693,0.0
53268.0,STARLINK-4109,PAYLOAD,2022-12-10 13:16:43,15.08869887,0.0001173,53.218,114.3988,337.7433,22.3508,-0.00059087,-9.687e-05,0.0,0 STARLINK-4109,1 53268U 22086AC  22344.55328299 -.00009687  00000-0 -59087-3 0  9994,2 53268  53.2180 114.3988 0001173 337.7433  22.3508 15.08869887 22151,6917.7890000000025,95.436,540.465,538.8430000000002,0.0
53268.0,STARLINK-4109,PAYLOAD,2022-12-10 16:27:31,15.08833449,0.0001754,53.2185,113.802,33.5572,326.5531,9.0403e-05,1.151e-05,0.0,0 STARLINK-4109,1 53268U 22086AC  22344.68577702  .00001151  00000-0  90403-4 0  9997,2 53268  53.2185 113.8020 0001754  33.5572 326.5531 15.08833449 21998,6917.9,95.438,540.979,538.552,0.0
53268.0,STARLINK-4109,PAYLOAD,2022-12-11 13:07:31,15.08842635,0.00016,53.2168,109.9354,54.96100000000001,305.1532,0.00042065,6.413e-05,0.0,0 STARLINK-4109,1 53268U 22086AC  22345.54689689  .00006413  00000-0  42065-3 0  9997,2 53268  53.2168 109.9354 0001600  54.9610 305.1532 15.08842635 22302,6917.871999999999,95.437,540.844,538.63,0.0
53268.0,STARLINK-4109,PAYLOAD,2022-12-11 19:29:04,15.08855031,0.0001555,53.2165,108.7457,57.6895,302.4247,0.00059542,9.205e-05,0.0,0 STARLINK-4109,1 53268U 22086AC  22345.81185294  .00009205  00000-0  59542-3 0  9990,2 53268  53.2165 108.7457 0001555  57.6895 302.4247 15.08855031 22165,6917.834,95.437,540.775,538.624,0.0
53268.0,STARLINK-4109,PAYLOAD,2022-12-11 21:04:27,15.08857292,0.0001526,53.2166,108.4483,60.0213,300.093,0.00069859,0.00010853,0.0,0 STARLINK-4109,1 53268U 22086AC  22345.87809205  .00010853  00000-0  69859-3 0  9994,2 53268  53.2166 108.4483 0001526  60.0213 300.0930 15.08857292 22357,6917.828,95.436,540.748,538.637,0.0
53268.0,STARLINK-4109,PAYLOAD,2022-12-12 11:22:55,15.08853413,0.0001545,53.2168,105.772,58.1249,301.9894,0.00052382,8.061e-05,0.0,0 STARLINK-4109,1 53268U 22086AC  22346.47425093  .00008061  00000-0  52382-3 0  9991,2 53268  53.2168 105.7720 0001545  58.1249 301.9894 15.08853413 22261,6917.839,95.437,540.773,538.636,0.0
